Company,Address,City,State,Zip,Website
West Cobb Contractors Group,5339 Memorial Ln,Powder Springs,GA,30127,
"Curb & Gutter Professionals, Inc",140 Pioneer Road,Jesup,GA,31545,
"Elite General Construction, Inc",6856 E Sherwood Drive,Riverdale,GA,30274,
"Lakeshore Engineering, LLC",1259 Ellsworth Drive NW,Atlanta,GA,30318,
Heavy Equipment Service Inc,1955 Woodyard Road and Hwy 80,Brooklet,GA,30415,
Archer Western Contractors,2410 Paces Ferry Road SE # 600,Atlanta,GA,30339,
Arco Inc,17 Westgate Boulevard,Savannah,GA,31405,
Flounoy Group,4375 Cascade Road Sw B10,Atlanta,GA,30331,
H & H Paving,,Acworth,GA,30102,http://www.h-hpaving.com
Affordable Asphalt,6109 glade rd,Acworth,GA,30102,
A-1 Septic Tank Service,755 Mauldin Road Nw,Calhoun,GA,30701,
A Buck Asphalt Paving,7746 Bankhead Highway,Douglasville,GA,30134,
Adams Paving Co Inc,514 Musket Ridge,Hull,GA,30646,
Advanced Versatile Services Inc,135 Shady Oak Lane,Claxton,GA,30417,
Affordable Asphalt,6109 glade rd,Acworth,GA,30102,
Allen Grading Inc,3660 Erdly Lane,Snellville,GA,30039,
All N 1 Traffic Control Solutions LLC,3915 Cascade Road Sw # 340,Atlanta,GA,30331,http://www.alln1security.com
Apac-Southeast Inc,47 Telfair Place,Savannah,GA,31415,http://www.apac.com
Archer Western Contractors,2410 Paces Ferry Road SE # 600,Atlanta,GA,30339,
Arco Inc,17 Westgate Boulevard,Savannah,GA,31405,
Area Engineer,1557 East Lamar Street,Americus,GA,31709,http://www.dot.ga.gov
Arrington Insurance,239 Smithville Church Road B,Warner Robins,GA,31088,
Asphalt Construction Co Inc,3060 Pilgrim Valley Drive,Cumming,GA,30040,
Asymmetric Logic Group Inc,5318 Bethel Road,Clermont,GA,30527,
Bad Boy Concrete,125 Junior Hill Road Ne,Milledgeville,GA,31061,
Baker/Woods Construction Inc,10205 Industrial Boulevard Ne B,Covington,GA,30014,
Bank Of America National Association,2720 Riverside Drive # 136,Macon,GA,31204,
Bedrock Construction LLC,2299 Limehurst Drive Ne,Atlanta,GA,30319,
B I G  Taylor Corporation,233 Us Highway 319 North,Moultrie,GA,31768,
Billy Moore Construction,2414 Red Bud Road Ne,Calhoun,GA,30701,http://www.apartments.calhoun.ypeek.com/
"B & J Reed Construction, LLC",1669 Will Evans Road,Chatsworth,GA,30705,
"Bloq, LLC",3175 Presidential Drive # 200,Atlanta,GA,30340,
Browning Brothers,1213 South Highway 19,Glenwood,GA,30428,
Byron Public Works Department,104 New Dunbar Road,Byron,GA,31008,http://www.byronga.com
Chambers And Sons Paving Services,2455 Old Alabama Road,Austell,GA,30168,http://chambersandsonspaving.com/info.html
Charles Hall Construction Inc,1300 Hall Road,Norwood,GA,30821,
City Dry Cleaners,107 North Duke Street,La Fayette,GA,30728,
Clarence W Kissner,1791 Cynthia Drive,Rossville,GA,30741,
Clayton English Construction,301 Madison Lane,Forsyth,GA,31029,
Clifton Construction Inc,18 Gulfstream Road,Savannah,GA,31408,http://www.cliftonconstruction.com
"Clinton & Partners, Inc",461 Coolsprings Trail,Woodstock,GA,30188,
Coastal Grading & Rental Inc,1361 Dean Forest Road,Savannah,GA,31405,
"Consouth, Inc",1958 Old Covington Road Ne,Conyers,GA,30013,http://www.consouthcontracting.com
Contracting Bertrand,4847 Industrial Access Road,Douglasville,GA,30134,
Cook Concrete Construction,289 Stanfill Road,Cairo,GA,39828,
"Cordy Company, The",41 Smith Chapel Road,Adrian,GA,31002,
"Coursey Construction Company, Inc",3206 Sams Creek Church Road,Metter,GA,30439,http://www.courseyconstruction.com
Courson Concepts,3341 Cockatoo Road,Augusta,GA,30907,
Cromer Consulting,1616 Piedmont Avenue Ne,Atlanta,GA,30324,
Cummings Clearing & Grading CO,64 Lake Drive,Lagrange,GA,30241,
"Curb & Gutter Professionals, Inc",140 Pioneer Road,Jesup,GA,31545,
C W Matthews,1149 Red Oak Flats Road,Dahlonega,GA,30533,http://Cwmatthews.com
David A Lawson Construction CO,4762 Highway 136,Trenton,GA,30752,
David Saxon Grading Construction,5771 Athens Street,Lula,GA,30554,
Dean's Paving Dup,2985 Gordy Parkway,Marietta,GA,30066,
Demolition,802 Mcintosh Street,Vidalia,GA,30474,
Department Of Transportation,1800 Century Boulevard Ne # 1700,Atlanta,GA,30345,http://www.dot.gov
"Diversified Southern Associates, LLC",106 North Alexander Avenue,Washington,GA,30673,
Dusty Lane Farms Inc,38 Shotgun Road Nw,Cartersville,GA,30121,
Earthworks Grading Inc,696 Ooltewah Ringgold Road,Ringgold,GA,30736,
Ed Smith Construction CO Inc,1480 Terrell Mill Road Se,Marietta,GA,30067,http://Edsmithconstruction.com
Effingham Road Builders Inc,296 Magnolia Place,Guyton,GA,31312,
Elbert County Road Department,1029 Johnson Drive,Elberton,GA,30635,
Elevon Support Services,111 Kelsall Drive,Richmond Hill,GA,31324,
"Elite General Construction, Inc",6856 E Sherwood Drive,Riverdale,GA,30274,
Engineering And Maintenance,2316 Tobacco Road,Augusta,GA,30906,http://www.augustaga.gov
Environmental Equipment Leasing LLC,10089 Estes Road,Macon,GA,31220,
Epps Brothers Inc,4655 Old Gordon Road,Dry Branch,GA,31020,
Equipment Associates Inc,179 Misty Hollow Way,Woodstock,GA,30188,
"E R Snell, Contractor, Inc",1002 Winterville Road,Athens,GA,30605,http://www.ersnell.com
E R Snell Contractor Inc,6854 Marbut Road,Lithonia,GA,30058,http://www.ersnell.com
F H  Paschen S N  Nielsen & Associates LLC,1344 La France Street Ne # 2,Atlanta,GA,30307,http://www.fhpaschen.com
Flounoy Group,4375 Cascade Road Sw B10,Atlanta,GA,30331,
Flowery Branch Sewer Plant,5572 Atlanta Highway,Flowery Branch,GA,30542,http://Flowerybranchga.org
Frady Grading Contractor,313 Morris Frady Road,Mount Airy,GA,30563,
Gary Moss Grading Contractor,1480 Maxey Road,Bishop,GA,30621,
Georgia Department Of Transportation,2594 Gillsville Highway,Gainesville,GA,30507,http://www.dot.ga.gov
Georgia Department of Transportation,4260 Frontage Road,Augusta,GA,30909,http://www.dot.ga.gov
Georgia Department Of Transportation,739 East Barnard Street,Glennville,GA,30427,http://www.dot.ga.gov
Georgia Emulsions,14 Foundation Drive,Savannah,GA,31408,
Georgia Extension 4-H Foundation,325 Old Jesup Road # 110,Brunswick,GA,31520,
G F D Sealcoating,640 Simonton Crest Drive,Lawrenceville,GA,30045,
Glosson Enterprises,4671 South Main Street,Acworth,GA,30101,http://www.glossonenterprises.com/about.html
"Gray Renovations, LLC",98 Travertine Circle,Savannah,GA,31419,
Griffin Stormwater Department,100 South Hill Street,Griffin,GA,30223,http://Griffinstorm.com
"Groundworks Contracting, Inc",50 Telfair Place # B,Garden City,GA,31415,
Guyton Construction Co,709 Pierce Drive,Dublin,GA,31021,
Hamilton Road Rebuilding Shop,700 Hamilton Road,Lagrange,GA,30241,
Hathaway Construction Services Inc,5901 C Pchtr Dnwd Road #,Atlanta,GA,30328,http://www.hathawayconstruction.com
Heavy Equipment Service Inc,1955 Woodyard Road,Brooklet,GA,30415,
Heavy Equipment Service Inc,1955 Woodyard Road and Hwy 80,Brooklet,GA,30415,
H & H Paving,,Acworth,GA,30102,http://www.h-hpaving.com
Highway Department,531 Reidsville Road,Lyons,GA,30436,
Highway Department,236 Fire Tower Road,Winder,GA,30680,http://www.dot.ga.gov
Highway Department,234 West Lee Street,Dawson,GA,39842,
Highway Maintenance Hdqrs,Ih 75 Transportation Drive,Ringgold,GA,30736,
Hri,4290 Whtwater Creek Road Nw,Atlanta,GA,30327,
Jackson Southeast Inc,1355 Thompson Drive,Douglas,GA,31535,
Jacob's Grading Co Inc,3551 Todd Drive,Douglasville,GA,30135,
James A Long Inc,6001 River Road,Columbus,GA,31904,http://Jakemartinandson.com
James Grading Larry,5642 Lakeshore Road,Buford,GA,30518,
J Asphalt-Demo,151 Chambliss Circle,Cataula,GA,31804,
J J E Constructors Inc,5665 Shirlee Indus Way North,Alpharetta,GA,30004,
J & L Cement Finisher,402 Esplanade Drive,Warner Robins,GA,31088,
Johnny Cash,260 Browning Road,Rockmart,GA,30153,
J & R Grading CO,1000 Fern Valley Court Sw,Atlanta,GA,30331,
Jtm Grassing CO,Zachariah Road,Molena,GA,30258,
Kiewit Infrastructure South Co,450 Dividend Drive,Peachtree City,GA,30269,http://www.kiewit.com
Kiewit Infrastructure South Co,510 Plaza Drive # 2745,Atlanta,GA,30349,http://www.kiewit.com
"Lakeshore Engineering, LLC",1259 Ellsworth Drive NW,Atlanta,GA,30318,
Lanier Construction Company,7111 Veazey Road,White Plains,GA,30678,
Larry Bowlin/William,,Williamson,GA,30292,
Laurel Ridge Grading,185 Mountain Laurel Ridge,Dahlonega,GA,30533,http://www.mountainmanremodeling.com
Lee Grading & Hauling,14 Brett Way Se,Cartersville,GA,30121,
"Lee Striping, Inc",385 Leatherwood Court,Lawrenceville,GA,30043,
Lewis J Couch,325 Busbin Road,Fayetteville,GA,30215,
"Lori's Transportation & Excavation, LLC",2475 Northwinds Parkway,Alpharetta,GA,30009,
"Lori's Transportation & Excavation, LLC",2824 Frontier Trail,Atlanta,GA,30341,
Madison Street Department,401 Burney Street,Madison,GA,30650,http://www.madison-in.gov
Maintenance Department Highway Division,2790 Roff Avenue,Macon,GA,31204,
Manor Investments LLC,14 Eastbrook Bend,Peachtree City,GA,30269,
Mcclendon Grading Inc,2940 Peeksville Road,Locust Grove,GA,30248,
Milam's Grading & Hauling,778 Ellison Road,Tyrone,GA,30290,
Mockingbird Dental Association,99 Mockingbird Drive,Cartersville,GA,30120,http://www.mockingbirddental.com
Monroe Street & Sanitary Department,351 Pannell Road,Monroe,GA,30655,http://www.monroega.com
Mullenax/Darold,201 Cantrell Road Sw,Rome,GA,30161,
Perfect Choice Contg Compay,2660 Timberloch Court,Snellville,GA,30039,
Phillips & Jordan Inc,55 Ivan Allen Jr Boulevard Nw 530,Atlanta,GA,30308,http://Pandj.com
Pooler Public Works,1095 South Rogers Street,Pooler,GA,31322,http://www.pooler-ga.us
Private Investor Reserves Corporation,1 Water Witch Crossing,Savannah,GA,31411,
Profitstars,100 West Main Street,Hahira,GA,31632,
Pro-Grade South LLC,1971 Stillwell Clyo Road,Springfield,GA,31329,http://www.progradesouth.com
Pro Media Concepts Inc,925 Main Street,Stone Mountain,GA,30083,
Public Works And Sanitation,4400 Acworth Indus Drive,Acworth,GA,30101,http://www.acworth.org
Public Works Transportation,141 Pryor Street Sw # 6001,Atlanta,GA,30303,
Randolph County Road Department,2122 District Line Road,Cuthbert,GA,39840,http://www.randolphcountyga.com
Reeves Construction Company,84 Spring Street,Americus,GA,31719,http://www.reevescc.com
Reynolds Construction Company Inc,Highway 84,Ludowici,GA,31316,http://www.reynoldsconstructioncompany.com
"R W Bussey Construction Co, Inc",2502 Reynolds Indus Road,Augusta,GA,30907,
"Scott Greeson Grading, LLC",4880 Spout Springs Road,Buford,GA,30519,
Scruggs Company Reames & Son Construction Company,4679 Highway 41 North,Hahira,GA,31632,
"Setco Grading, LLC",45 Ansley Drive,Newnan,GA,30263,
Sherwood Construction,2909 Zebulon Road,Zebulon,GA,30295,http://Sherwoodconstruction.net
Sidewalk Solutions,4681 Redan Road,Stone Mountain,GA,30083,http://www.sidewalkpro.com
"Skyline Outdoor, Inc",3944 Dally Road,Covington,GA,30014,
Smooth Ridge Grading LLC,274 Shackleford Road,Temple,GA,30179,http://Smoothridgegrading.net
Southern Asphalt Division,3015 Smith Road,Fortson,GA,31808,http://www.robinsonpaving.com
State Highway Engineer,2 Capitol Square Sw,Atlanta,GA,30334,
Street Department,206 East Mlk Drive Sylvster Sylvester,Sylvester,GA,31791,http://www.cityofsylvester.com
The Redland Company Inc,1000 Cooper Circle # 105,Peachtree City,GA,30269,http://www.redlandcompany.com
"Thermo Electric Systems, Inc",150 North Industrial,Palmetto,GA,30268,http://www.jhc-corporation.com
Thomaston Sewage Disposal Plnt,340 North Center Street,Thomaston,GA,30286,
Warrior Construction,1095 Us Highway 27,Cataula,GA,31804,
Watts Grading,1932 Jamerson Road,Marietta,GA,30066,
Wayne County Board Commission,165 Raintree Drive,Jesup,GA,31545,
West Cobb Contractors Group,5339 Memorial Ln,Powder Springs,GA,30127,
Willard Blunschijr,5525 Elliott Road,Powder Springs,GA,30127,
Wilson Handyman,3441 CHEROKEE Avenue,Columbus,GA,31906,http://www.wilsonhandyman.com
Young Brothers Halng &Grading,5138 Young Road,Gainesville,GA,30506,
